NORAD_CAT_ID,OBJECT_NAME,OBJECT_TYPE,EPOCH,MEAN_MOTION,ECCENTRICITY,INCLINATION,RA_OF_ASC_NODE,ARG_OF_PERICENTER,MEAN_ANOMALY,BSTAR,MEAN_MOTION_DOT,MEAN_MOTION_DDOT,TLE_LINE0,TLE_LINE1,TLE_LINE2,SEMIMAJOR_AXIS,PERIOD,APOGEE,PERIGEE,DECAYED
54794.0,STARLINK-5392,PAYLOAD,2024-01-31 22:54:47,15.12113663,0.0001049,53.2154,239.7533,94.8289,265.2825,-1.0204e-05,-4.75e-06,0.0,0 STARLINK-5392,1 54794U 22175AN  24031.95472073 -.00000475  00000-0 -10204-4 0  9992,2 54794  53.2154 239.7533 0001049  94.8289 265.2825 15.12113663 62015,6907.892,95.231,530.482,529.033,0.0
54794.0,STARLINK-5392,PAYLOAD,2024-02-01 22:42:28,15.12115915,0.0001018,53.2157,235.2802,95.102,265.009,1.6764e-05,-5e-08,0.0,0 STARLINK-5392,1 54794U 22175AN  24032.94616351 -.00000005  00000-0  16764-4 0  9996,2 54794  53.2157 235.2802 0001018  95.1020 265.0090 15.12115915 64321,6907.885,95.231,530.454,529.047,0.0
54794.0,STARLINK-5392,PAYLOAD,2024-02-02 12:59:05,15.12114375,0.0001204,53.2162,232.5956,85.9614,274.1517,3.5546e-06,-2.35e-06,0.0,0 STARLINK-5392,1 54794U 22175AN  24033.54103349 -.00000235  00000-0  35546-5 0  9996,2 54794  53.2162 232.5956 0001204  85.9614 274.1517 15.12114375 64414,6907.89,95.231,530.587,528.923,0.0
54794.0,STARLINK-5392,PAYLOAD,2024-02-02 19:19:48,15.12118411,0.0001444,53.2172,231.4033,75.8051,284.3103,-1.9296e-05,-6.34e-06,0.0,0 STARLINK-5392,1 54794U 22175AN  24033.80541971 -.00000634  00000-0 -19296-4 0  9999,2 54794  53.2172 231.4033 0001444  75.8051 284.3103 15.12118411 62291,6907.878,95.231,530.74,528.745,0.0
54794.0,STARLINK-5392,PAYLOAD,2024-02-02 20:54:58,15.12119775,0.0001501,53.2175,231.1051,73.8101,286.3058,-8.5048e-06,-4.46e-06,0.0,0 STARLINK-5392,1 54794U 22175AN  24033.87151497 -.00000446  00000-0 -85048-5 0  9996,2 54794  53.2175 231.1051 0001501  73.8101 286.3058 15.12119775 64465,6907.874,95.231,530.775,528.702,0.0
54794.0,STARLINK-5392,PAYLOAD,2024-02-03 12:46:45,15.12120538,0.0001339,53.2168,228.1209,85.0829,275.0317,5.4016e-05,6.44e-06,0.0,0 STARLINK-5392,1 54794U 22175AN  24034.53247218  .00000644  00000-0  54016-4 0  9995,2 54794  53.2168 228.1209 0001339  85.0829 275.0317 15.12120538 64562,6907.871,95.231,530.661,528.811,0.0
54794.0,STARLINK-5392,PAYLOAD,2024-02-03 19:07:28,15.1211905,0.000134,53.2169,226.9281,86.5494,273.5653,4.1311e-05,4.22e-06,0.0,0 STARLINK-5392,1 54794U 22175AN  24034.79685854  .00000422  00000-0  41311-4 0  9993,2 54794  53.2169 226.9281 0001340  86.5494 273.5653 15.12119050 64603,6907.876,95.231,530.666,528.815,0.0
54794.0,STARLINK-5392,PAYLOAD,2024-02-04 18:55:10,15.12114028,0.0001247,53.2174,222.4547,85.8136,274.3,-4.6721e-05,-1.111e-05,0.0,0 STARLINK-5392,1 54794U 22175AN  24035.78831095 -.00001111  00000-0 -46721-4 0  9991,2 54794  53.2174 222.4547 0001247  85.8136 274.3000 15.12114028 62597,6907.891,95.231,530.617,528.895,0.0
54794.0,STARLINK-5392,PAYLOAD,2024-02-05 12:22:07,15.12114803,0.0001217,53.2173,219.1754,81.4857,278.6274,3.1214e-06,-2.43e-06,0.0,0 STARLINK-5392,1 54794U 22175AN  24036.51536801 -.00000243  00000-0  31214-5 0  9996,2 54794  53.2173 219.1754 0001217  81.4857 278.6274 15.12114803 64861,6907.889,95.231,530.594,528.913,0.0
54794.0,STARLINK-5392,PAYLOAD,2024-02-05 18:42:50,15.1211959,0.000128,53.2176,217.983,83.6755,276.4384,4.0066e-05,4.01e-06,0.0,0 STARLINK-5392,1 54794U 22175AN  24036.77974875  .00000401  00000-0  40066-4 0  9990,2 54794  53.2176 217.9830 0001280  83.6755 276.4384 15.12119590 62747,6907.874,95.231,530.623,528.855,0.0
54794.0,STARLINK-5392,PAYLOAD,2024-02-06 12:09:48,15.12116269,0.0001324,53.2182,214.7036,97.4367,262.6777,6.2667e-05,7.95e-06,0.0,0 STARLINK-5392,1 54794U 22175AN  24037.50680755  .00000795  00000-0  62667-4 0  9990,2 54794  53.2182 214.7036 0001324  97.4367 262.6777 15.12116269 65014,6907.884,95.231,530.664,528.835,0.0
54794.0,STARLINK-5392,PAYLOAD,2024-02-06 16:55:20,15.12111565,0.0001282,53.2177,213.8061,99.9442,260.1696,2.5527e-05,1.47e-06,0.0,0 STARLINK-5392,1 54794U 22175AN  24037.70510054  .00000147  00000-0  25527-4 0  9991,2 54794  53.2177 213.8061 0001282  99.9442 260.1696 15.12111565 62889,6907.899,95.231,530.649,528.878,0.0
54794.0,STARLINK-5392,PAYLOAD,2024-02-07 11:57:30,15.12110479,0.0001276,53.218,210.2272,92.4213,267.6927,-9.0374e-05,-1.871e-05,0.0,0 STARLINK-5392,1 54794U 22175AN  24038.49826503 -.00001871  00000-0 -90374-4 0  9996,2 54794  53.2180 210.2272 0001276  92.4213 267.6927 15.12110479 65161,6907.902,95.231,530.648,528.885,0.0
54794.0,STARLINK-5392,PAYLOAD,2024-02-07 18:18:12,15.12111157,0.0001268,53.2181,209.0357,91.2231,268.8908,-7.5789e-05,-1.617e-05,0.0,0 STARLINK-5392,1 54794U 22175AN  24038.76265008 -.00001617  00000-0 -75789-4 0  9994,2 54794  53.2181 209.0357 0001268  91.2231 268.8908 15.12111157 63041,6907.9,95.231,530.641,528.889,0.0
54794.0,STARLINK-5392,PAYLOAD,2024-02-08 03:49:16,15.12118147,0.0001283,53.2187,207.246,91.7785,268.3356,-1.2863e-05,-5.21e-06,0.0,0 STARLINK-5392,1 54794U 22175AN  24039.15922123 -.00000521  00000-0 -12863-4 0  9993,2 54794  53.2187 207.2460 0001283  91.7785 268.3356 15.12118147 63103,6907.879,95.231,530.63,528.857,0.0
54794.0,STARLINK-5392,PAYLOAD,2024-02-08 14:55:32,15.12111362,0.0001351,53.2193,205.1594,95.5026,264.6122,2.3536e-05,1.13e-06,0.0,0 STARLINK-5392,1 54794U 22175AN  24039.62189847  .00000113  00000-0  23536-4 0  9997,2 54794  53.2193 205.1594 0001351  95.5026 264.6122 15.12111362 65330,6907.899,95.231,530.697,528.831,0.0
54794.0,STARLINK-5392,PAYLOAD,2024-02-08 18:05:53,15.12113501,0.0001364,53.219,204.5631,96.3904,263.7245,3.779e-05,3.61e-06,0.0,0 STARLINK-5392,1 54794U 22175AN  24039.75408940  .00000361  00000-0  37790-4 0  9991,2 54794  53.2190 204.5631 0001364  96.3904 263.7245 15.12113501 65355,6907.893,95.231,530.7,528.815,0.0
54794.0,STARLINK-5392,PAYLOAD,2024-02-09 14:43:13,15.12107704,0.0001276,53.2183,200.6859,91.9389,268.1751,2.9755e-05,2.21e-06,0.0,0 STARLINK-5392,1 54794U 22175AN  24040.61334828  .00000221  00000-0  29755-4 0  9998,2 54794  53.2183 200.6859 0001276  91.9389 268.1751 15.12107704 65489,6907.91,95.231,530.657,528.894,0.0
54794.0,STARLINK-5392,PAYLOAD,2024-02-09 19:28:45,15.12105797,0.0001326,53.2186,199.7916,95.6127,264.5018,-4.2758e-06,-3.72e-06,0.0,0 STARLINK-5392,1 54794U 22175AN  24040.81164077 -.00000372  00000-0 -42758-5 0  9995,2 54794  53.2186 199.7916 0001326  95.6127 264.5018 15.12105797 63351,6907.916,95.231,530.697,528.865,0.0
54794.0,STARLINK-5392,PAYLOAD,2024-02-10 19:16:25,15.12119551,0.0001202,53.2172,195.3158,89.3447,270.7684,7.9019e-06,-1.6e-06,0.0,0 STARLINK-5392,1 54794U 22175AN  24041.80307769 -.00000160  00000-0  79019-5 0  9996,2 54794  53.2172 195.3158 0001202  89.3447 270.7684 15.12119551 63502,6907.874,95.231,530.57,528.909,0.0
54794.0,STARLINK-5392,PAYLOAD,2024-02-11 14:18:34,15.12115057,0.0001145,53.217,191.7368,90.4264,269.6861,3.8528e-05,3.74e-06,0.0,0 STARLINK-5392,1 54794U 22175AN  24042.59623501  .00000374  00000-0  38528-4 0  9993,2 54794  53.2170 191.7368 0001145  90.4264 269.6861 15.12115057 65782,6907.888,95.231,530.544,528.962,0.0
54794.0,STARLINK-5392,PAYLOAD,2024-02-11 17:28:56,15.12114321,0.0001187,53.2174,191.1408,89.2516,270.8614,3.3774e-05,2.91e-06,0.0,0 STARLINK-5392,1 54794U 22175AN  24042.72842872  .00000291  00000-0  33774-4 0  9998,2 54794  53.2174 191.1408 0001187  89.2516 270.8614 15.12114321 65803,6907.89,95.231,530.575,528.935,0.0
54794.0,STARLINK-5392,PAYLOAD,2024-02-12 09:20:43,15.12117619,0.000124,53.2176,188.1588,89.4145,270.6991,-1.4887e-05,-5.57e-06,0.0,0 STARLINK-5392,1 54794U 22175AN  24043.38939311 -.00000557  00000-0 -14887-4 0  9997,2 54794  53.2176 188.1588 0001240  89.4145 270.6991 15.12117619 65900,6907.88,95.231,530.602,528.889,0.0
54794.0,STARLINK-5392,PAYLOAD,2024-02-12 18:51:47,15.12118898,0.0001251,53.2178,186.3703,85.2925,274.8211,-3.3133e-06,-3.55e-06,0.0,0 STARLINK-5392,1 54794U 22175AN  24043.78596977 -.00000355  00000-0 -33133-5 0  9990,2 54794  53.2178 186.3703 0001251  85.2925 274.8211 15.12118898 63801,6907.876,95.231,530.605,528.877,0.0
54794.0,STARLINK-5392,PAYLOAD,2024-02-13 15:29:06,15.12119811,0.0001151,53.2173,182.4931,85.4265,274.686,4.1752e-05,4.3e-06,0.0,0 STARLINK-5392,1 54794U 22175AN  24044.64521916  .00000430  00000-0  41752-4 0  9994,2 54794  53.2173 182.4931 0001151  85.4265 274.6860 15.12119811 66092,6907.873,95.231,530.534,528.943,0.0
54794.0,STARLINK-5392,PAYLOAD,2024-02-14 02:35:21,15.12122756,0.0001216,53.2172,180.406,83.6269,276.4863,5.311e-05,6.28e-06,0.0,0 STARLINK-5392,1 54794U 22175AN  24045.10789031  .00000628  00000-0  53110-4 0  9990,2 54794  53.2172 180.4060 0001216  83.6269 276.4863 15.12122756 64002,6907.864,95.23,530.569,528.889,0.0
54794.0,STARLINK-5392,PAYLOAD,2024-02-14 12:06:26,15.12114724,0.0001302,53.2176,178.6174,84.5736,275.5406,2.4074e-06,-2.55e-06,0.0,0 STARLINK-5392,1 54794U 22175AN  24045.50447504 -.00000255  00000-0  24074-5 0  9995,2 54794  53.2176 178.6174 0001302  84.5736 275.5406 15.12114724 64061,6907.889,95.231,530.653,528.855,0.0
54794.0,STARLINK-5392,PAYLOAD,2024-02-14 15:16:48,15.12111886,0.0001306,53.2175,178.0216,79.3946,280.7195,-1.7424e-05,-6.01e-06,0.0,0 STARLINK-5392,1 54794U 22175AN  24045.63667066 -.00000601  00000-0 -17424-4 0  9992,2 54794  53.2175 178.0216 0001306  79.3946 280.7195 15.12111886 66241,6907.898,95.231,530.665,528.86,0.0
54794.0,STARLINK-5392,PAYLOAD,2024-02-15 13:29:18,15.1211362,0.0001376,53.2174,173.8467,80.231,279.8839,-3.6001e-05,-9.24e-06,0.0,0 STARLINK-5392,1 54794U 22175AN  24046.56202034 -.00000924  00000-0 -36001-4 0  9995,2 54794  53.2174 173.8467 0001376  80.2310 279.8839 15.12113620 66381,6907.892,95.231,530.708,528.807,0.0
54794.0,STARLINK-5392,PAYLOAD,2024-02-15 15:04:29,15.12112003,0.0001361,53.2177,173.5489,78.906,281.2087,-4.511e-05,-1.083e-05,0.0,0 STARLINK-5392,1 54794U 22175AN  24046.62811820 -.00001083  00000-0 -45110-4 0  9999,2 54794  53.2177 173.5489 0001361  78.9060 281.2087 15.12112003 64233,6907.897,95.231,530.702,528.822,0.0
